[
  {
    "COMMENT": "GENERATED VIA SPACETRACK.ORG API",
    "ORIGINATOR": "18 SPCS",
    "NORAD_CAT_ID": "41335",
    "OBJECT_NAME": "SENTINEL 3A",
    "OBJECT_TYPE": "PAYLOAD",
    "CLASSIFICATION_TYPE": "U",
    "INTLDES": "16011A",
    "EPOCH": "2023-08-11 10:03:14",
    "EPOCH_MICROSECONDS": "113440",
    "MEAN_MOTION": "14.26741109",
    "ECCENTRICITY": "0.0000976",
    "INCLINATION": "98.6184",
    "RA_OF_ASC_NODE": "289.6465",
    "ARG_OF_PERICENTER": "94.852",
    "MEAN_ANOMALY": "265.2772",
    "EPHEMERIS_TYPE": "0",
    "ELEMENT_SET_NO": "999",
    "REV_AT_EPOCH": "38965",
    "BSTAR": "0.000068334",
    "MEAN_MOTION_DOT": "0.00000122",
    "MEAN_MOTION_DDOT": "0",
    "FILE": "3977548",
    "TLE_LINE0": "0 SENTINEL 3A",
    "TLE_LINE1": "1 41335U 16011A   23223.41891335  .00000122  00000-0  68334-4 0  9994",
    "TLE_LINE2": "2 41335  98.6184 289.6465 0000976  94.8520 265.2772 14.26741109389651",
    "OBJECT_ID": "2016-011A",
    "OBJECT_NUMBER": "41335",
    "SEMIMAJOR_AXIS": "7180.782",
    "PERIOD": "100.929",
    "APOGEE": "803.348",
    "PERIGEE": "801.946",
    "DECAYED": "0"
  },
  {
    "COMMENT": "GENERATED VIA SPACETRACK.ORG API",
    "ORIGINATOR": "18 SPCS",
    "NORAD_CAT_ID": "25544",
    "OBJECT_NAME": "ISS (ZARYA)",
    "OBJECT_TYPE": "PAYLOAD",
    "CLASSIFICATION_TYPE": "U",
    "INTLDES": "98067A",
    "EPOCH": "2023-08-11 12:22:43",
    "EPOCH_MICROSECONDS": "748832",
    "MEAN_MOTION": "15.50112461",
    "ECCENTRICITY": "0.0000262",
    "INCLINATION": "51.6418",
    "RA_OF_ASC_NODE": "54.3927",
    "ARG_OF_PERICENTER": "51.3682",
    "MEAN_ANOMALY": "41.2433",
    "EPHEMERIS_TYPE": "0",
    "ELEMENT_SET_NO": "999",
    "REV_AT_EPOCH": "41037",
    "BSTAR": "0.00020593",
    "MEAN_MOTION_DOT": "0.00011361",
    "MEAN_MOTION_DDOT": "0",
    "FILE": "3977489",
    "TLE_LINE0": "0 ISS (ZARYA)",
    "TLE_LINE1": "1 25544U 98067A   23223.51578413  .00011361  00000-0  20593-3 0  9990",
    "TLE_LINE2": "2 25544  51.6418  54.3927 0000262  51.3682  41.2433 15.50112461410370",
    "OBJECT_ID": "1998-067A",
    "OBJECT_NUMBER": "25544",
    "SEMIMAJOR_AXIS": "6794.534",
    "PERIOD": "92.896",
    "APOGEE": "416.577",
    "PERIGEE": "416.221",
    "DECAYED": "0"
  },
  {
    "COMMENT": "GENERATED VIA SPACETRACK.ORG API",
    "ORIGINATOR": "18 SPCS",
    "NORAD_CAT_ID": "25544",
    "OBJECT_NAME": "ISS (ZARYA)",
    "OBJECT_TYPE": "PAYLOAD",
    "CLASSIFICATION_TYPE": "U",
    "INTLDES": "98067A",
    "EPOCH": "2023-08-11 12:22:43",
    "EPOCH_MICROSECONDS": "748832",
    "MEAN_MOTION": "15.50112679",
    "ECCENTRICITY": "0.0000222",
    "INCLINATION": "51.6418",
    "RA_OF_ASC_NODE": "54.3925",
    "ARG_OF_PERICENTER": "51.0381",
    "MEAN_ANOMALY": "41.5748",
    "EPHEMERIS_TYPE": "0",
    "ELEMENT_SET_NO": "999",
    "REV_AT_EPOCH": "41037",
    "BSTAR": "0.00020658",
    "MEAN_MOTION_DOT": "0.00011399",
    "MEAN_MOTION_DDOT": "0",
    "FILE": "3977490",
    "TLE_LINE0": "0 ISS (ZARYA)",
    "TLE_LINE1": "1 25544U 98067A   23223.51578413  .00011399  00000-0  20658-3 0  9993",
    "TLE_LINE2": "2 25544  51.6418  54.3925 0000222  51.0381  41.5748 15.50112679410370",
    "OBJECT_ID": "1998-067A",
    "OBJECT_NUMBER": "25544",
    "SEMIMAJOR_AXIS": "6794.534",
    "PERIOD": "92.896",
    "APOGEE": "416.550",
    "PERIGEE": "416.248",
    "DECAYED": "0"
  },
  {
    "COMMENT": "GENERATED VIA SPACETRACK.ORG API",
    "ORIGINATOR": "18 SPCS",
    "NORAD_CAT_ID": "41335",
    "OBJECT_NAME": "SENTINEL 3A",
    "OBJECT_TYPE": "PAYLOAD",
    "CLASSIFICATION_TYPE": "U",
    "INTLDES": "16011A",
    "EPOCH": "2023-08-11 18:28:10",
    "EPOCH_MICROSECONDS": "128288",
    "MEAN_MOTION": "14.26741295",
    "ECCENTRICITY": "0.0000976",
    "INCLINATION": "98.6184",
    "RA_OF_ASC_NODE": "289.9918",
    "ARG_OF_PERICENTER": "95.0142",
    "MEAN_ANOMALY": "265.115",
    "EPHEMERIS_TYPE": "0",
    "ELEMENT_SET_NO": "999",
    "REV_AT_EPOCH": "38970",
    "BSTAR": "0.000072787",
    "MEAN_MOTION_DOT": "0.00000133",
    "MEAN_MOTION_DDOT": "0",
    "FILE": "3977861",
    "TLE_LINE0": "0 SENTINEL 3A",
    "TLE_LINE1": "1 41335U 16011A   23223.76956167  .00000133  00000-0  72787-4 0  9996",
    "TLE_LINE2": "2 41335  98.6184 289.9918 0000976  95.0142 265.1150 14.26741295389701",
    "OBJECT_ID": "2016-011A",
    "OBJECT_NUMBER": "41335",
    "SEMIMAJOR_AXIS": "7180.781",
    "PERIOD": "100.929",
    "APOGEE": "803.347",
    "PERIGEE": "801.945",
    "DECAYED": "0"
  },
  {
    "COMMENT": "GENERATED VIA SPACETRACK.ORG API",
    "ORIGINATOR": "18 SPCS",
    "NORAD_CAT_ID": "25544",
    "OBJECT_NAME": "ISS (ZARYA)",
    "OBJECT_TYPE": "PAYLOAD",
    "CLASSIFICATION_TYPE": "U",
    "INTLDES": "98067A",
    "EPOCH": "2023-08-11 18:34:56",
    "EPOCH_MICROSECONDS": "737920",
    "MEAN_MOTION": "15.49314225",
    "ECCENTRICITY": "0.0003466",
    "INCLINATION": "51.6401",
    "RA_OF_ASC_NODE": "53.1099",
    "ARG_OF_PERICENTER": "281.0915",
    "MEAN_ANOMALY": "174.4375",
    "EPHEMERIS_TYPE": "0",
    "ELEMENT_SET_NO": "999",
    "REV_AT_EPOCH": "41041",
    "BSTAR": "0.0038035",
    "MEAN_MOTION_DOT": "0.00217414",
    "MEAN_MOTION_DDOT": "0",
    "FILE": "3977800",
    "TLE_LINE0": "0 ISS (ZARYA)",
    "TLE_LINE1": "1 25544U 98067A   23223.77426780  .00217414  00000-0  38035-2 0  9993",
    "TLE_LINE2": "2 25544  51.6401  53.1099 0003466 281.0915 174.4375 15.49314225410418",
    "OBJECT_ID": "1998-067A",
    "OBJECT_NUMBER": "25544",
    "SEMIMAJOR_AXIS": "6796.868",
    "PERIOD": "92.944",
    "APOGEE": "421.089",
    "PERIGEE": "416.377",
    "DECAYED": "0"
  },
  {
    "COMMENT": "GENERATED VIA SPACETRACK.ORG API",
    "ORIGINATOR": "18 SPCS",
    "NORAD_CAT_ID": "25544",
    "OBJECT_NAME": "ISS (ZARYA)",
    "OBJECT_TYPE": "PAYLOAD",
    "CLASSIFICATION_TYPE": "U",
    "INTLDES": "98067A",
    "EPOCH": "2023-08-11 20:20:10",
    "EPOCH_MICROSECONDS": "328928",
    "MEAN_MOTION": "15.49283988",
    "ECCENTRICITY": "0.0003573",
    "INCLINATION": "51.6416",
    "RA_OF_ASC_NODE": "52.7578",
    "ARG_OF_PERICENTER": "289.4105",
    "MEAN_ANOMALY": "213.9402",
    "EPHEMERIS_TYPE": "0",
    "ELEMENT_SET_NO": "999",
    "REV_AT_EPOCH": "41042",
    "BSTAR": "-0.00095427",
    "MEAN_MOTION_DOT": "-0.000532",
    "MEAN_MOTION_DDOT": "0",
    "FILE": "3977807",
    "TLE_LINE0": "0 ISS (ZARYA)",
    "TLE_LINE1": "1 25544U 98067A   23223.84734177 -.00053200  00000-0 -95427-3 0  9995",
    "TLE_LINE2": "2 25544  51.6416  52.7578 0003573 289.4105 213.9402 15.49283988410425",
    "OBJECT_ID": "1998-067A",
    "OBJECT_NUMBER": "25544",
    "SEMIMAJOR_AXIS": "6796.956",
    "PERIOD": "92.946",
    "APOGEE": "421.250",
    "PERIGEE": "416.393",
    "DECAYED": "0"
  },
  {
    "COMMENT": "GENERATED VIA SPACETRACK.ORG API",
    "ORIGINATOR": "18 SPCS",
    "NORAD_CAT_ID": "25544",
    "OBJECT_NAME": "ISS (ZARYA)",
    "OBJECT_TYPE": "PAYLOAD",
    "CLASSIFICATION_TYPE": "U",
    "INTLDES": "98067A",
    "EPOCH": "2023-08-12 00:49:53",
    "EPOCH_MICROSECONDS": "818752",
    "MEAN_MOTION": "15.49291145",
    "ECCENTRICITY": "0.0003587",
    "INCLINATION": "51.642",
    "RA_OF_ASC_NODE": "51.8319",
    "ARG_OF_PERICENTER": "290.9876",
    "MEAN_ANOMALY": "177.7592",
    "EPHEMERIS_TYPE": "0",
    "ELEMENT_SET_NO": "999",
    "REV_AT_EPOCH": "41045",
    "BSTAR": "-0.000095986",
    "MEAN_MOTION_DOT": "-0.00005791",
    "MEAN_MOTION_DDOT": "0",
    "FILE": "3978070",
    "TLE_LINE0": "0 ISS (ZARYA)",
    "TLE_LINE1": "1 25544U 98067A   23224.03465068 -.00005791  00000-0 -95986-4 0  9990",
    "TLE_LINE2": "2 25544  51.6420  51.8319 0003587 290.9876 177.7592 15.49291145410454",
    "OBJECT_ID": "1998-067A",
    "OBJECT_NUMBER": "25544",
    "SEMIMAJOR_AXIS": "6796.936",
    "PERIOD": "92.946",
    "APOGEE": "421.239",
    "PERIGEE": "416.362",
    "DECAYED": "0"
  },
  {
    "COMMENT": "GENERATED VIA SPACETRACK.ORG API",
    "ORIGINATOR": "18 SPCS",
    "NORAD_CAT_ID": "41335",
    "OBJECT_NAME": "SENTINEL 3A",
    "OBJECT_TYPE": "PAYLOAD",
    "CLASSIFICATION_TYPE": "U",
    "INTLDES": "16011A",
    "EPOCH": "2023-08-12 02:53:06",
    "EPOCH_MICROSECONDS": "140544",
    "MEAN_MOTION": "14.26741433",
    "ECCENTRICITY": "0.0000973",
    "INCLINATION": "98.6183",
    "RA_OF_ASC_NODE": "290.3372",
    "ARG_OF_PERICENTER": "95.4076",
    "MEAN_ANOMALY": "264.7216",
    "EPHEMERIS_TYPE": "0",
    "ELEMENT_SET_NO": "999",
    "REV_AT_EPOCH": "38975",
    "BSTAR": "0.00007386",
    "MEAN_MOTION_DOT": "0.00000135",
    "MEAN_MOTION_DDOT": "0",
    "FILE": "3978100",
    "TLE_LINE0": "0 SENTINEL 3A",
    "TLE_LINE1": "1 41335U 16011A   23224.12020996  .00000135  00000-0  73860-4 0  9994",
    "TLE_LINE2": "2 41335  98.6183 290.3372 0000973  95.4076 264.7216 14.26741433389754",
    "OBJECT_ID": "2016-011A",
    "OBJECT_NUMBER": "41335",
    "SEMIMAJOR_AXIS": "7180.781",
    "PERIOD": "100.929",
    "APOGEE": "803.344",
    "PERIGEE": "801.947",
    "DECAYED": "0"
  }
]